OBJECT_NAME,OBJECT_ID,EPOCH,MEAN_MOTION,ECCENTRICITY,INCLINATION,RA_OF_ASC_NODE,ARG_OF_PERICENTER,MEAN_ANOMALY,EPHEMERIS_TYPE,CLASSIFICATION_TYPE,NORAD_CAT_ID,ELEMENT_SET_NO,REV_AT_EPOCH,BSTAR,MEAN_MOTION_DOT,MEAN_MOTION_DDOT
TERRA,1999-068A,2022-02-21T03:35:27.452256,14.57148883,.0001187,98.1492,126.6777,95.6763,318.7138,0,U,25994,999,17968,.44706E-4,.157E-5,0
TERRA,1999-068A,2022-02-21T11:37:49.205856,14.57149076,.0001195,98.1492,127.0054,95.8559,274.6784,0,U,25994,999,17973,.47027E-4,.167E-5,0
TERRA,1999-068A,2022-02-21T18:40:58.151712,14.57149198,.0001192,98.1492,127.2930,95.6733,15.4262,0,U,25994,999,17977,.45707E-4,.161E-5,0
TERRA,1999-068A,2022-02-21T21:52:11.052192,14.57149359,.0001192,98.1491,127.4229,95.6893,351.5696,0,U,25994,999,17967,.50973E-4,.185E-5,0
TERRA,1999-068A,2022-02-22T04:18:10.118592,14.57149484,.0001191,98.1491,127.6852,96.0503,316.4681,0,U,25994,999,17983,.49945E-4,.181E-5,0
TERRA,1999-068A,2022-02-22T10:42:11.669760,14.57149464,.0001193,98.1491,127.9461,96.1425,274.5045,0,U,25994,999,17987,.44894E-4,.158E-5,0
TERRA,1999-068A,2022-02-22T12:49:19.049664,14.57149601,.0001194,98.1491,128.0325,96.0514,17.4146,0,U,25994,999,17976,.47787E-4,.171E-5,0
TERRA,1999-068A,2022-02-22T21:08:38.177088,14.57149664,.0001194,98.1490,128.3718,96.2110,35.1325,0,U,25994,999,17981,.44258E-4,.155E-5,0
TERRA,1999-068A,2022-02-23T03:23:12.851808,14.57149769,.0001194,98.1489,128.6263,96.4347,318.6406,0,U,25994,999,17997,.42761E-4,.148E-5,0
TERRA,1999-068A,2022-02-23T11:56:48.338880,14.57149893,.0001197,98.1489,128.9753,96.4889,28.4273,0,U,25994,999,18002,.41456E-4,.142E-5,0
TERRA,1999-068A,2022-02-23T13:38:48.511392,14.57149924,.0001196,98.1489,129.0446,96.4905,39.7892,0,U,25994,999,17991,.40489E-4,.138E-5,0
TERRA,1999-068A,2022-02-23T18:28:20.903232,14.57149980,.0001192,98.1488,129.2414,96.4788,13.9334,0,U,25994,999,17994,.38727E-4,.13E-5,0
TERRA,1999-068A,2022-02-23T18:28:20.903232,14.57149980,.0001192,98.1488,129.2414,96.4788,13.9334,0,U,25994,999,18006,.38727E-4,.13E-5,0
TERRA,1999-068A,2022-02-24T12:39:40.683744,14.57133250,.0001273,98.1487,129.9828,97.5335,26.0551,0,U,25994,999,18005,.40039E-4,.136E-5,0
TERRA,1999-068A,2022-02-24T20:50:47.535072,14.57133185,.000127,98.1486,130.3165,97.7171,13.8582,0,U,25994,999,18010,.70063E-5,-.13E-6,0
TERRA,1999-068A,2022-02-24T20:50:47.535072,14.57133185,.000127,98.1486,130.3165,97.7171,13.8582,0,U,25994,999,18022,.70063E-5,-.13E-6,0
TERRA,1999-068A,2022-02-25T03:11:12.168672,14.57133242,.0001269,98.1485,130.5750,97.7692,318.7573,0,U,25994,999,18026,.69826E-5,-.13E-6,0
TERRA,1999-068A,2022-02-25T11:25:40.080576,14.57133603,.0001272,98.1485,130.9110,97.6407,319.0734,0,U,25994,999,18019,.46617E-4,.165E-5,0
TERRA,1999-068A,2022-02-25T11:25:40.080576,14.57133603,.0001272,98.1485,130.9110,97.6407,319.0734,0,U,25994,999,18031,.46617E-4,.165E-5,0
TERRA,1999-068A,2022-02-25T18:15:44.837568,14.57133703,.000126,98.1485,131.1896,97.2293,12.4506,0,U,25994,999,18023,.37591E-4,.125E-5,0
TERRA,1999-068A,2022-02-25T18:15:44.837568,14.57133703,.000126,98.1485,131.1896,97.2293,12.4506,0,U,25994,999,18035,.37591E-4,.125E-5,0
TERRA,1999-068A,2022-02-26T12:08:55.158144,14.57133983,.0001282,98.1483,131.9188,97.6563,319.0952,0,U,25994,999,18034,.41767E-4,.144E-5,0
TERRA,1999-068A,2022-02-26T12:08:55.158144,14.57133983,.0001282,98.1483,131.9188,97.6563,319.0952,0,U,25994,999,18046,.41767E-4,.144E-5,0
TERRA,1999-068A,2022-02-26T18:58:52.475232,14.57134136,.000128,98.1482,132.1973,97.4664,11.7997,0,U,25994,999,18050,.43386E-4,.151E-5,0
TERRA,1999-068A,2022-02-26T22:34:13.197792,14.57134050,.0001278,98.1482,132.3436,97.5332,75.7358,0,U,25994,999,18040,.37862E-4,.126E-5,0
TERRA,1999-068A,2022-02-27T02:58:56.237664,14.57134120,.0001276,98.1481,132.5235,97.6532,319.3660,0,U,25994,999,18055,.37549E-4,.125E-5,0
TERRA,1999-068A,2022-02-27T11:00:54.316800,14.57134398,.0001275,98.1481,132.8510,97.6402,274.0689,0,U,25994,999,18060,.44405E-4,.155E-5,0
TERRA,1999-068A,2022-02-27T13:06:21.038112,14.57134554,.0001272,98.1481,132.9362,97.4311,10.9845,0,U,25994,999,18049,.48546E-4,.174E-5,0
TERRA,1999-068A,2022-02-27T21:24:23.120928,14.57134668,.000127,98.1480,133.2746,97.5054,24.0940,0,U,25994,999,18054,.47736E-4,.17E-5,0
TERRA,1999-068A,2022-02-28T03:34:47.991648,14.57134828,.0001274,98.1479,133.5263,97.6845,292.4753,0,U,25994,999,18070,.49417E-4,.178E-5,0
TERRA,1999-068A,2022-02-28T11:56:26.181600,14.57134956,.0001279,98.1479,133.8671,97.6354,318.8212,0,U,25994,999,18075,.50727E-4,.184E-5,0
