TERRA                   
1 25994U 99068A   22052.14962329  .00000157  00000+0  44706-4 0  9995
2 25994  98.1492 126.6777 0001187  95.6763 318.7138 14.57148883179684
TERRA                   
1 25994U 99068A   22052.48459729  .00000167  00000+0  47027-4 0  9997
2 25994  98.1492 127.0054 0001195  95.8559 274.6784 14.57149076179739
TERRA                   
1 25994U 99068A   22052.77845083  .00000161  00000+0  45707-4 0  9998
2 25994  98.1492 127.2930 0001192  95.6733  15.4262 14.57149198179774
TERRA                   
1 25994U 99068A   22052.91123903  .00000185  00000+0  50973-4 0  9991
2 25994  98.1491 127.4229 0001192  95.6893 351.5696 14.57149359179676
TERRA                   
1 25994U 99068A   22053.17928378  .00000181  00000+0  49945-4 0  9992
2 25994  98.1491 127.6852 0001191  96.0503 316.4681 14.57149484179833
TERRA                   
1 25994U 99068A   22053.44596840  .00000158  00000+0  44894-4 0  9999
2 25994  98.1491 127.9461 0001193  96.1425 274.5045 14.57149464179878
TERRA                   
1 25994U 99068A   22053.53424826  .00000171  00000+0  47787-4 0  9992
2 25994  98.1491 128.0325 0001194  96.0514  17.4146 14.57149601179765
TERRA                   
1 25994U 99068A   22053.88099742  .00000155  00000+0  44258-4 0  9997
2 25994  98.1490 128.3718 0001194  96.2110  35.1325 14.57149664179818
TERRA                   
1 25994U 99068A   22054.14112097  .00000148  00000+0  42761-4 0  9995
2 25994  98.1489 128.6263 0001194  96.4347 318.6406 14.57149769179970
TERRA                   
1 25994U 99068A   22054.49778170  .00000142  00000+0  41456-4 0  9997
2 25994  98.1489 128.9753 0001197  96.4889  28.4273 14.57149893180025
TERRA                   
1 25994U 99068A   22054.56861703  .00000138  00000+0  40489-4 0  9990
2 25994  98.1489 129.0446 0001196  96.4905  39.7892 14.57149924179917
TERRA                   
1 25994U 99068A   22054.76968638  .00000130  00000+0  38727-4 0  9991
2 25994  98.1488 129.2414 0001192  96.4788  13.9334 14.57149980179948
TERRA                   
1 25994U 99068A   22055.52755421  .00000136  00000+0  40039-4 0  9995
2 25994  98.1487 129.9828 0001273  97.5335  26.0551 14.57133250180056
TERRA                   
1 25994U 99068A   22055.86860573 -.00000013  00000+0  70063-5 0  9993
2 25994  98.1486 130.3165 0001270  97.7171  13.8582 14.57133185180103
TERRA                   
1 25994U 99068A   22056.13277973 -.00000013  00000+0  69826-5 0  9995
2 25994  98.1485 130.5750 0001269  97.7692 318.7573 14.57133242180268
TERRA                   
1 25994U 99068A   22056.47615834  .00000165  00000+0  46617-4 0  9993
2 25994  98.1485 130.9110 0001272  97.6407 319.0734 14.57133603180195
TERRA                   
1 25994U 99068A   22056.76093562  .00000125  00000+0  37591-4 0  9990
2 25994  98.1485 131.1896 0001260  97.2293  12.4506 14.57133703180232
TERRA                   
1 25994U 99068A   22057.50619396  .00000144  00000+0  41767-4 0  9993
2 25994  98.1483 131.9188 0001282  97.6563 319.0952 14.57133983180343
TERRA                   
1 25994U 99068A   22057.79088513  .00000151  00000+0  43386-4 0  9992
2 25994  98.1482 132.1973 0001280  97.4664  11.7997 14.57134136180509
TERRA                   
1 25994U 99068A   22057.94043053  .00000126  00000+0  37862-4 0  9993
2 25994  98.1482 132.3436 0001278  97.5332  75.7358 14.57134050180400
TERRA                   
1 25994U 99068A   22058.12426201  .00000125  00000+0  37549-4 0  9995
2 25994  98.1481 132.5235 0001276  97.6532 319.3660 14.57134120180556
TERRA                   
1 25994U 99068A   22058.45896200  .00000155  00000+0  44405-4 0  9993
2 25994  98.1481 132.8510 0001275  97.6402 274.0689 14.57134398180601
TERRA                   
1 25994U 99068A   22058.54607683  .00000174  00000+0  48546-4 0  9999
2 25994  98.1481 132.9362 0001272  97.4311  10.9845 14.57134554180493
TERRA                   
1 25994U 99068A   22058.89193427  .00000170  00000+0  47736-4 0  9999
2 25994  98.1480 133.2746 0001270  97.5054  24.0940 14.57134668180549
TERRA                   
1 25994U 99068A   22059.14916657  .00000178  00000+0  49417-4 0  9992
2 25994  98.1479 133.5263 0001274  97.6845 292.4753 14.57134828180706
TERRA                   
1 25994U 99068A   22059.49752525  .00000184  00000+0  50727-4 0  9995
2 25994  98.1479 133.8671 0001279  97.6354 318.8212 14.57134956180752
